NORAD_CAT_ID,OBJECT_NAME,OBJECT_TYPE,EPOCH,MEAN_MOTION,ECCENTRICITY,INCLINATION,RA_OF_ASC_NODE,ARG_OF_PERICENTER,MEAN_ANOMALY,BSTAR,MEAN_MOTION_DOT,MEAN_MOTION_DDOT,TLE_LINE0,TLE_LINE1,TLE_LINE2,SEMIMAJOR_AXIS,PERIOD,APOGEE,PERIGEE,DECAYED
53705.0,STARLINK-4717,PAYLOAD,2023-12-01 09:11:34,15.08843448,0.0002367,53.2186,7.2398,70.3862,289.7386,-3.7603e-07,-2.94e-06,0.0,0 STARLINK-4717,1 53705U 22107F   23335.38303928 -.00000294  00000-0 -37603-6 0  9996,2 53705  53.2186   7.2398 0002367  70.3862 289.7386 15.08843448 69654,6917.87,95.437,541.372,538.097,0.0
53705.0,STARLINK-4717,PAYLOAD,2023-12-02 01:05:25,15.08851382,0.0001893,53.2178,4.2648,105.0413,255.0789,0.00015524,2.184e-05,0.0,0 STARLINK-4717,1 53705U 22107F   23336.04543259  .00002184  00000-0  15524-3 0  9996,2 53705  53.2178   4.2648 0001893 105.0413 255.0789 15.08851382 69009,6917.846,95.437,541.02,538.401,0.0
53705.0,STARLINK-4717,PAYLOAD,2023-12-02 09:02:20,15.08894568,0.0001953,53.2179,2.78,103.888,256.233,0.0016504,0.00026115,0.0,0 STARLINK-4717,1 53705U 22107F   23336.37662207  .00026115  00000-0  16504-2 0  9995,2 53705  53.2179   2.7800 0001953 103.8880 256.2330 15.08894568 69057,6917.714,95.434,540.93,538.228,0.0
53705.0,STARLINK-4717,PAYLOAD,2023-12-03 02:31:35,15.08829864,0.000204,53.2178,359.5062,104.3605,255.7613,-0.00050463,-8.308e-05,0.0,0 STARLINK-4717,1 53705U 22107F   23337.10527301 -.00008308  00000-0 -50463-3 0  9991,2 53705  53.2178 359.5062 0002040 104.3605 255.7613 15.08829864 69165,6917.911,95.438,541.188,538.365,0.0
53705.0,STARLINK-4717,PAYLOAD,2023-12-03 07:17:45,15.0880206,0.0001881,53.218,358.617,87.8915,272.2292,-0.00098438,-0.00015904,0.0,0 STARLINK-4717,1 53705U 22107F   23337.30400058 -.00015904  00000-0 -98438-3 0  9996,2 53705  53.2180 358.6170 0001881  87.8915 272.2292 15.08802060 69198,6917.996,95.44,541.163,538.56,0.0
53705.0,STARLINK-4717,PAYLOAD,2023-12-03 13:39:19,15.08800895,0.0001883,53.2179,357.4274,82.5124,277.6082,-0.00012384,-2.256e-05,0.0,0 STARLINK-4717,1 53705U 22107F   23337.56896993 -.00002256  00000-0 -12384-3 0  9993,2 53705  53.2179 357.4274 0001883  82.5124 277.6082 15.08800895 69239,6918.0,95.44,541.168,538.562,0.0
53705.0,STARLINK-4717,PAYLOAD,2023-12-04 10:19:21,15.08835157,0.0001937,53.2176,353.562,80.5006,279.6205,0.0013723,0.00021617,0.0,0 STARLINK-4717,1 53705U 22107F   23338.43010571  .00021617  00000-0  13723-2 0  9997,2 53705  53.2176 353.5620 0001937  80.5006 279.6205 15.08835157 69367,6917.895,95.438,541.1,538.42,0.0
53705.0,STARLINK-4717,PAYLOAD,2023-12-05 08:34:44,15.08875488,0.0002032,53.2176,349.3997,80.4577,279.6644,0.0013979,0.00022051,0.0,0 STARLINK-4717,1 53705U 22107F   23339.35745543  .00022051  00000-0  13979-2 0  9999,2 53705  53.2176 349.3997 0002032  80.4577 279.6644 15.08875488 70254,6917.772,95.435,541.043,538.231,0.0
53705.0,STARLINK-4717,PAYLOAD,2023-12-06 00:28:35,15.08869187,0.0002185,53.218,346.4268,83.7892,276.3349,0.001201,0.00018893,0.0,0 STARLINK-4717,1 53705U 22107F   23340.01984975  .00018893  00000-0  12010-2 0  9992,2 53705  53.2180 346.4268 0002185  83.7892 276.3349 15.08869187 69605,6917.791,95.436,541.168,538.145,0.0
53705.0,STARLINK-4717,PAYLOAD,2023-12-06 10:00:53,15.08890857,0.0003156,53.2178,344.6421,70.2501,289.8831,0.0017965,0.00028461,0.0,0 STARLINK-4717,1 53705U 22107F   23340.41728305  .00028461  00000-0  17965-2 0  9995,2 53705  53.2178 344.6421 0003156  70.2501 289.8831 15.08890857 70414,6917.725,95.434,541.773,537.407,0.0
53705.0,STARLINK-4717,PAYLOAD,2023-12-07 05:05:31,15.08845311,0.0001947,53.2179,341.0761,90.645,269.4765,0.00047524,7.285e-05,0.0,0 STARLINK-4717,1 53705U 22107F   23341.21216596  .00007285  00000-0  47524-3 0  9994,2 53705  53.2179 341.0761 0001947  90.6450 269.4765 15.08845311 69781,6917.864,95.437,541.076,538.382,0.0
53705.0,STARLINK-4717,PAYLOAD,2023-12-08 03:20:55,15.08842235,0.0001978,53.2179,336.9107,96.1105,264.0112,0.00019554,2.825e-05,0.0,0 STARLINK-4717,1 53705U 22107F   23342.13952682  .00002825  00000-0  19554-3 0  9996,2 53705  53.2179 336.9107 0001978  96.1105 264.0112 15.08842235 69925,6917.874,95.437,541.107,538.37,0.0
53705.0,STARLINK-4717,PAYLOAD,2023-12-08 06:31:41,15.08845932,0.0002098,53.2183,336.3152,93.8523,266.2709,0.00019682,2.846e-05,0.0,0 STARLINK-4717,1 53705U 22107F   23342.27200609  .00002846  00000-0  19682-3 0  9991,2 53705  53.2183 336.3152 0002098  93.8523 266.2709 15.08845932 70695,6917.862,95.437,541.179,538.276,0.0
53705.0,STARLINK-4717,PAYLOAD,2023-12-09 04:47:05,15.08841009,0.0002069,53.2184,332.1536,98.3271,261.7956,0.00013085,1.795e-05,0.0,0 STARLINK-4717,1 53705U 22107F   23343.19936768  .00001795  00000-0  13085-3 0  9998,2 53705  53.2184 332.1536 0002069  98.3271 261.7956 15.08841009 70082,6917.877,95.437,541.174,538.311,0.0
53705.0,STARLINK-4717,PAYLOAD,2023-12-09 23:51:43,15.0883989,0.0002117,53.2187,328.5858,100.9121,259.211,8.3403e-05,1.039e-05,0.0,0 STARLINK-4717,1 53705U 22107F   23343.99424842  .00001039  00000-0  83403-4 0  9994,2 53705  53.2187 328.5858 0002117 100.9121 259.2110 15.08839890 70954,6917.881,95.438,541.21,538.281,0.0
53705.0,STARLINK-4717,PAYLOAD,2023-12-11 04:28:39,15.08836984,0.000203,53.2183,323.2331,97.7898,262.3325,3.9099e-05,3.34e-06,0.0,0 STARLINK-4717,1 53705U 22107F   23345.18657176  .00000334  00000-0  39099-4 0  9994,2 53705  53.2183 323.2331 0002030  97.7898 262.3325 15.08836984 70387,6917.89,95.438,541.159,538.35,0.0
53705.0,STARLINK-4717,PAYLOAD,2023-12-11 06:04:03,15.08837119,0.0001923,53.2179,322.9357,86.4822,273.639,4.3052e-05,3.97e-06,0.0,0 STARLINK-4717,1 53705U 22107F   23345.25281264  .00000397  00000-0  43052-4 0  9996,2 53705  53.2179 322.9357 0001923  86.4822 273.6390 15.08837119 71141,6917.889,95.438,541.085,538.424,0.0
53705.0,STARLINK-4717,PAYLOAD,2023-12-12 05:54:49,15.08845928,0.0001955,53.2177,318.4754,85.1792,274.9424,0.00020225,2.933e-05,0.0,0 STARLINK-4717,1 53705U 22107F   23346.24640986  .00002933  00000-0  20225-3 0  9990,2 53705  53.2177 318.4754 0001955  85.1792 274.9424 15.08845928 70549,6917.862,95.437,541.08,538.375,0.0
53705.0,STARLINK-4717,PAYLOAD,2023-12-13 02:34:50,15.08843384,0.0001887,53.2182,314.6073,94.3448,265.7759,0.00013251,1.822e-05,0.0,0 STARLINK-4717,1 53705U 22107F   23347.10753129  .00001822  00000-0  13251-3 0  9997,2 53705  53.2182 314.6073 0001887  94.3448 265.7759 15.08843384 70678,6917.87,95.437,541.04,538.43,0.0
53705.0,STARLINK-4717,PAYLOAD,2023-12-13 05:45:37,15.08842553,0.0002034,53.2187,314.0125,79.3042,280.8179,0.00013414,1.847e-05,0.0,0 STARLINK-4717,1 53705U 22107F   23347.24001288  .00001847  00000-0  13414-3 0  9992,2 53705  53.2187 314.0125 0002034  79.3042 280.8179 15.08842553 71440,6917.873,95.437,541.145,538.33,0.0
53705.0,STARLINK-4717,PAYLOAD,2023-12-14 04:01:01,15.0884116,0.0002185,53.2188,309.8527,74.28,285.8434,-2.7556e-05,-7.27e-06,0.0,0 STARLINK-4717,1 53705U 22107F   23348.16737645 -.00000727  00000-0 -27556-4 0  9998,2 53705  53.2188 309.8527 0002185  74.2800 285.8434 15.08841160 70836,6917.877,95.437,541.253,538.23,0.0
53705.0,STARLINK-4717,PAYLOAD,2023-12-15 03:51:47,15.08854992,0.0001925,53.2172,305.3932,82.0902,278.0309,0.00018342,2.633e-05,0.0,0 STARLINK-4717,1 53705U 22107F   23349.16096756  .00002633  00000-0  18342-3 0  9998,2 53705  53.2172 305.3932 0001925  82.0902 278.0309 15.08854992 70989,6917.835,95.437,541.031,538.368,0.0
53705.0,STARLINK-4717,PAYLOAD,2023-12-16 02:07:12,15.0883894,0.0001781,53.2178,301.2208,102.5616,257.5576,2.12e-05,4.9e-07,0.0,0 STARLINK-4717,1 53705U 22107F   23350.08833394  .00000049  00000-0  21200-4 0  9995,2 53705  53.2178 301.2208 0001781 102.5616 257.5576 15.08838940 71126,6917.884,95.438,540.981,538.517,0.0
53705.0,STARLINK-4717,PAYLOAD,2023-12-17 03:33:22,15.08845602,0.0001646,53.2174,296.4657,105.4052,254.7122,0.00014437,2.011e-05,0.0,0 STARLINK-4717,1 53705U 22107F   23351.14817358  .00002011  00000-0  14437-3 0  9999,2 53705  53.2174 296.4657 0001646 105.4052 254.7122 15.08845602 71287,6917.863,95.437,540.867,538.59,0.0
53705.0,STARLINK-4717,PAYLOAD,2023-12-18 01:48:45,15.08857584,0.0001569,53.2163,292.3071,94.3462,265.771,0.00046791,7.17e-05,0.0,0 STARLINK-4717,1 53705U 22107F   23352.07553041  .00007170  00000-0  46791-3 0  9997,2 53705  53.2163 292.3071 0001569  94.3462 265.7710 15.08857584 72171,6917.827,95.436,540.777,538.606,0.0
53705.0,STARLINK-4717,PAYLOAD,2023-12-19 03:14:57,15.08830394,0.0001366,53.2168,287.5471,91.428,268.6868,-0.00011923,-2.184e-05,0.0,0 STARLINK-4717,1 53705U 22107F   23353.13538195 -.00002184  00000-0 -11923-3 0  9999,2 53705  53.2168 287.5471 0001366  91.4280 268.6868 15.08830394 71587,6917.91,95.438,540.72,538.83,0.0
53705.0,STARLINK-4717,PAYLOAD,2023-12-20 03:05:43,15.08848816,0.000135,53.2165,283.0875,83.0507,277.0639,0.00050202,7.713e-05,0.0,0 STARLINK-4717,1 53705U 22107F   23354.12898101  .00007713  00000-0  50202-3 0  9999,2 53705  53.2165 283.0875 0001350  83.0507 277.0639 15.08848816 71730,6917.853,95.437,540.652,538.785,0.0
53705.0,STARLINK-4717,PAYLOAD,2023-12-21 02:56:30,15.08861593,0.0001286,53.2158,278.6268,91.3573,268.7567,0.00062683,9.708e-05,0.0,0 STARLINK-4717,1 53705U 22107F   23355.12257592  .00009708  00000-0  62683-3 0  9995,2 53705  53.2158 278.6268 0001286  91.3573 268.7567 15.08861593 71881,6917.814,95.436,540.569,538.79,0.0
53705.0,STARLINK-4717,PAYLOAD,2023-12-22 01:11:55,15.08840039,0.0001806,53.2159,274.4711,68.782,291.3364,0.00026667,3.959e-05,0.0,0 STARLINK-4717,1 53705U 22107F   23356.04994377  .00003959  00000-0  26667-3 0  9990,2 53705  53.2159 274.4711 0001806  68.7820 291.3364 15.08840039 72026,6917.88,95.438,540.995,538.496,0.0
53705.0,STARLINK-4717,PAYLOAD,2023-12-22 21:51:56,15.08837823,0.0001754,53.2161,270.5961,96.6375,263.4816,0.00022311,3.264e-05,0.0,0 STARLINK-4717,1 53705U 22107F   23356.91106522  .00003264  00000-0  22311-3 0  9994,2 53705  53.2161 270.5961 0001754  96.6375 263.4816 15.08837823 72906,6917.887,95.438,540.965,538.539,0.0
